IRIDIUM 159             
1 43578U 18061K   24356.75600142  .00000102  00000+0  29518-4 0  9999
2 43578  86.3962 283.3643 0002249  85.0613 275.0840 14.34217233335638
IRIDIUM 180             
1 43922U 19002A   24357.17410854  .00000456  00000+0  15590-3 0  9990
2 43922  86.3981 220.0670 0002005  83.5173 276.6251 14.34217359311348
IRIDIUM 176             
1 43923U 19002B   24357.11653038  .00001534  00000+0  23945-3 0  9999
2 43923  86.6112 220.0981 0002853  73.4362 286.7169 14.72246988319498
IRIDIUM 168             
1 43924U 19002C   24356.74915519  .00000477  00000+0  16321-3 0  9998
2 43924  86.3983 220.3066 0002010  86.4590 273.6836 14.34220531311224
IRIDIUM 173             
1 43925U 19002D   24356.59693215 -.00000006  00000+0 -93157-5 0  9992
2 43925  86.3985 220.2813 0001875  83.8822 276.2587 14.34217355311191
IRIDIUM 169             
1 43926U 19002E   24357.20412414  .00000688  00000+0  21848-3 0  9992
2 43926  86.4225 251.6392 0001853  31.9261 328.2050 14.38612785312304
IRIDIUM 172             
1 43927U 19002F   24356.73012727 -.00000117  00000+0 -48937-4 0  9991
2 43927  86.3984 220.2317 0001982  84.7677 275.3745 14.34216630311212
IRIDIUM 175             
1 43928U 19002G   24356.83934212  .00000750  00000+0  11496-3 0  9995
2 43928  86.1520 182.8109 0000592  99.5360 260.5924 14.72240607319449
